STARLINK-1719           
1 46331U 20062G   25335.91667823  .00075001  00000+0  20420-2 0  9999
2 46331  53.0511  86.1441 0005538 279.7776 233.4743 15.36844099  5914
STARLINK-1723           
1 46333U 20062J   25335.91667823  .00101489  00000+0  20321-2 0  9991
2 46333  53.0511  86.6915 0006120 320.1409 116.9199 15.45943179  5660
STARLINK-1727           
1 46335U 20062L   25335.91667823  .00091401  00000+0  21667-2 0  9999
2 46335  53.0515  88.3597 0005793 323.9714 188.6963 15.40987087  5897
STARLINK-1738           
1 46336U 20062M   25335.91667823  .00101235  00000+0  16743-2 0  9996
2 46336  53.0449  45.2862 0004388 136.0386 312.0635 15.51419973  5905
STARLINK-1750           
1 46337U 20062N   25335.91667823  .00105448  00000+0  18164-2 0  9996
2 46337  53.0470  57.2816 0005655 268.4765  93.3433 15.50247989  5945
STARLINK-1752           
1 46338U 20062P   25335.91667823  .00095597  00000+0  19528-2 0  9995
2 46338  53.0506  87.0409 0006967 327.0620 192.3939 15.45383087  5860
STARLINK-1759           
1 46340U 20062R   25335.91667823  .00059168  00000+0  17518-2 0  9999
2 46340  53.0328  78.1152 0002589 195.4529 335.7409 15.34336493  5853
STARLINK-1764           
1 46343U 20062U   25335.91667823  .00061699  00000+0  15423-2 0  9997
2 46343  53.0529  67.9057 0006780 334.6593   0.1552 15.39553397  5877
STARLINK-1765           
1 46344U 20062V   25335.91667823  .00085989  00000+0  16628-2 0  9994
2 46344  53.0493  61.2081 0005982 303.6723  99.1280 15.47035944  5942
STARLINK-1767           
1 46345U 20062W   25335.91667823  .00157928  00000+0  18304-2 0  9991
2 46345  53.0415  61.6002 0001622 202.7272  72.7834 15.60800838  5869
STARLINK-1547           
1 46347U 20062Y   25335.35483940  .00089454  00000+0  22970-2 0  9999
2 46347  53.0468  31.2320 0004162 271.9072  88.1454 15.38571508290413
STARLINK-1553           
1 46348U 20062Z   25335.51636383  .00033342  00000+0  11115-2 0  9993
2 46348  53.0421  46.8975 0004465 197.5787 162.5058 15.30805643290221
STARLINK-1575           
1 46349U 20062AA  25335.91667823  .00138235  00000+0  25700-2 0  9993
2 46349  53.0409  21.3543 0005051 215.5022 172.7981 15.47926048  5832
STARLINK-1646           
1 46351U 20062AC  25335.56956868 -.00001983  00000+0 -11427-3 0  9990
2 46351  53.0573  77.0948 0001262  77.5538 282.5593 15.06401069289819
STARLINK-1653           
1 46352U 20062AD  25335.91667823  .00025540  00000+0  78063-3 0  9992
2 46352  53.0521  68.1826 0005318 335.7612  21.6309 15.33724059  5794
STARLINK-1656           
1 46353U 20062AE  25335.61565856  .00009162  00000+0  63284-3 0  9994
2 46353  53.0526  96.8894 0001378  74.6213 285.4928 15.06419979289525
