[{"OBJECT_NAME":"STARLINK-1719","OBJECT_ID":"2020-062G","EPOCH":"2025-12-01T22:00:00.999072","MEAN_MOTION":15.36844099,"ECCENTRICITY":0.0005538,"INCLINATION":53.0511,"RA_OF_ASC_NODE":86.1441,"ARG_OF_PERICENTER":279.7776,"MEAN_ANOMALY":233.4743,"EPHEMERIS_TYPE":0,"CLASSIFICATION_TYPE":"U","NORAD_CAT_ID":46331,"ELEMENT_SET_NO":999,"REV_AT_EPOCH":591,"BSTAR":0.002042,"MEAN_MOTION_DOT":0.00075001,"MEAN_MOTION_DDOT":0},{"OBJECT_NAME":"STARLINK-1723","OBJECT_ID":"2020-062J","EPOCH":"2025-12-01T22:00:00.999072","MEAN_MOTION":15.45943179,"ECCENTRICITY":0.000612,"INCLINATION":53.0511,"RA_OF_ASC_NODE":86.6915,"ARG_OF_PERICENTER":320.1409,"MEAN_ANOMALY":116.9199,"EPHEMERIS_TYPE":0,"CLASSIFICATION_TYPE":"U","NORAD_CAT_ID":46333,"ELEMENT_SET_NO":999,"REV_AT_EPOCH":566,"BSTAR":0.0020321,"MEAN_MOTION_DOT":0.00101489,"MEAN_MOTION_DDOT":0},{"OBJECT_NAME":"STARLINK-1727","OBJECT_ID":"2020-062L","EPOCH":"2025-12-01T22:00:00.999072","MEAN_MOTION":15.40987087,"ECCENTRICITY":0.0005793,"INCLINATION":53.0515,"RA_OF_ASC_NODE":88.3597,"ARG_OF_PERICENTER":323.9714,"MEAN_ANOMALY":188.6963,"EPHEMERIS_TYPE":0,"CLASSIFICATION_TYPE":"U","NORAD_CAT_ID":46335,"ELEMENT_SET_NO":999,"REV_AT_EPOCH":589,"BSTAR":0.0021667,"MEAN_MOTION_DOT":0.00091401,"MEAN_MOTION_DDOT":0},{"OBJECT_NAME":"STARLINK-1738","OBJECT_ID":"2020-062M","EPOCH":"2025-12-01T22:00:00.999072","MEAN_MOTION":15.51419973,"ECCENTRICITY":0.0004388,"INCLINATION":53.0449,"RA_OF_ASC_NODE":45.2862,"ARG_OF_PERICENTER":136.0386,"MEAN_ANOMALY":312.0635,"EPHEMERIS_TYPE":0,"CLASSIFICATION_TYPE":"U","NORAD_CAT_ID":46336,"ELEMENT_SET_NO":999,"REV_AT_EPOCH":590,"BSTAR":0.0016743,"MEAN_MOTION_DOT":0.00101235,"MEAN_MOTION_DDOT":0},{"OBJECT_NAME":"STARLINK-1750","OBJECT_ID":"2020-062N","EPOCH":"2025-12-01T22:00:00.999072","MEAN_MOTION":15.50247989,"ECCENTRICITY":0.0005655,"INCLINATION":53.047,"RA_OF_ASC_NODE":57.2816,"ARG_OF_PERICENTER":268.4765,"MEAN_ANOMALY":93.3433,"EPHEMERIS_TYPE":0,"CLASSIFICATION_TYPE":"U","NORAD_CAT_ID":46337,"ELEMENT_SET_NO":999,"REV_AT_EPOCH":594,"BSTAR":0.0018164,"MEAN_MOTION_DOT":0.00105448,"MEAN_MOTION_DDOT":0},{"OBJECT_NAME":"STARLINK-1752","OBJECT_ID":"2020-062P","EPOCH":"2025-12-01T22:00:00.999072","MEAN_MOTION":15.45383087,"ECCENTRICITY":0.0006967,"INCLINATION":53.0506,"RA_OF_ASC_NODE":87.0409,"ARG_OF_PERICENTER":327.062,"MEAN_ANOMALY":192.3939,"EPHEMERIS_TYPE":0,"CLASSIFICATION_TYPE":"U","NORAD_CAT_ID":46338,"ELEMENT_SET_NO":999,"REV_AT_EPOCH":586,"BSTAR":0.0019528,"MEAN_MOTION_DOT":0.00095597,"MEAN_MOTION_DDOT":0},{"OBJECT_NAME":"STARLINK-1759","OBJECT_ID":"2020-062R","EPOCH":"2025-12-01T22:00:00.999072","MEAN_MOTION":15.34336493,"ECCENTRICITY":0.0002589,"INCLINATION":53.0328,"RA_OF_ASC_NODE":78.1152,"ARG_OF_PERICENTER":195.4529,"MEAN_ANOMALY":335.7409,"EPHEMERIS_TYPE":0,"CLASSIFICATION_TYPE":"U","NORAD_CAT_ID":46340,"ELEMENT_SET_NO":999,"REV_AT_EPOCH":585,"BSTAR":0.0017518,"MEAN_MOTION_DOT":0.00059168,"MEAN_MOTION_DDOT":0},{"OBJECT_NAME":"STARLINK-1764","OBJECT_ID":"2020-062U","EPOCH":"2025-12-01T22:00:00.999072","MEAN_MOTION":15.39553397,"ECCENTRICITY":0.000678,"INCLINATION":53.0529,"RA_OF_ASC_NODE":67.9057,"ARG_OF_PERICENTER":334.6593,"MEAN_ANOMALY":0.1552,"EPHEMERIS_TYPE":0,"CLASSIFICATION_TYPE":"U","NORAD_CAT_ID":46343,"ELEMENT_SET_NO":999,"REV_AT_EPOCH":587,"BSTAR":0.0015423,"MEAN_MOTION_DOT":0.00061699,"MEAN_MOTION_DDOT":0},{"OBJECT_NAME":"STARLINK-1765","OBJECT_ID":"2020-062V","EPOCH":"2025-12-01T22:00:00.999072","MEAN_MOTION":15.47035944,"ECCENTRICITY":0.0005982,"INCLINATION":53.0493,"RA_OF_ASC_NODE":61.2081,"ARG_OF_PERICENTER":303.6723,"MEAN_ANOMALY":99.128,"EPHEMERIS_TYPE":0,"CLASSIFICATION_TYPE":"U","NORAD_CAT_ID":46344,"ELEMENT_SET_NO":999,"REV_AT_EPOCH":594,"BSTAR":0.0016628,"MEAN_MOTION_DOT":0.00085989,"MEAN_MOTION_DDOT":0},{"OBJECT_NAME":"STARLINK-1767","OBJECT_ID":"2020-062W","EPOCH":"2025-12-01T22:00:00.999072","MEAN_MOTION":15.60800838,"ECCENTRICITY":0.0001622,"INCLINATION":53.0415,"RA_OF_ASC_NODE":61.6002,"ARG_OF_PERICENTER":202.7272,"MEAN_ANOMALY":72.7834,"EPHEMERIS_TYPE":0,"CLASSIFICATION_TYPE":"U","NORAD_CAT_ID":46345,"ELEMENT_SET_NO":999,"REV_AT_EPOCH":586,"BSTAR":0.0018304,"MEAN_MOTION_DOT":0.00157928,"MEAN_MOTION_DDOT":0},{"OBJECT_NAME":"STARLINK-1547","OBJECT_ID":"2020-062Y","EPOCH":"2025-12-01T08:30:58.124160","MEAN_MOTION":15.38571508,"ECCENTRICITY":0.0004162,"INCLINATION":53.0468,"RA_OF_ASC_NODE":31.232,"ARG_OF_PERICENTER":271.9072,"MEAN_ANOMALY":88.1454,"EPHEMERIS_TYPE":0,"CLASSIFICATION_TYPE":"U","NORAD_CAT_ID":46347,"ELEMENT_SET_NO":999,"REV_AT_EPOCH":29041,"BSTAR":0.002297,"MEAN_MOTION_DOT":0.00089454,"MEAN_MOTION_DDOT":0},{"OBJECT_NAME":"STARLINK-1553","OBJECT_ID":"2020-062Z","EPOCH":"2025-12-01T12:23:33.834048","MEAN_MOTION":15.30805643,"ECCENTRICITY":0.0004466,"INCLINATION":53.0421,"RA_OF_ASC_NODE":46.8975,"ARG_OF_PERICENTER":197.5787,"MEAN_ANOMALY":162.5058,"EPHEMERIS_TYPE":0,"CLASSIFICATION_TYPE":"U","NORAD_CAT_ID":46348,"ELEMENT_SET_NO":999,"REV_AT_EPOCH":29022,"BSTAR":0.0011115,"MEAN_MOTION_DOT":0.00033342,"MEAN_MOTION_DDOT":0},{"OBJECT_NAME":"STARLINK-1575","OBJECT_ID":"2020-062AA","EPOCH":"2025-12-01T22:00:00.999072","MEAN_MOTION":15.47926048,"ECCENTRICITY":0.0005051,"INCLINATION":53.0409,"RA_OF_ASC_NODE":21.3543,"ARG_OF_PERICENTER":215.5022,"MEAN_ANOMALY":172.7981,"EPHEMERIS_TYPE":0,"CLASSIFICATION_TYPE":"U","NORAD_CAT_ID":46349,"ELEMENT_SET_NO":999,"REV_AT_EPOCH":583,"BSTAR":0.00257,"MEAN_MOTION_DOT":0.00138235,"MEAN_MOTION_DDOT":0},{"OBJECT_NAME":"STARLINK-1646","OBJECT_ID":"2020-062AC","EPOCH":"2025-12-01T13:40:10.733088","MEAN_MOTION":15.06401069,"ECCENTRICITY":0.0001263,"INCLINATION":53.0573,"RA_OF_ASC_NODE":77.0948,"ARG_OF_PERICENTER":77.5538,"MEAN_ANOMALY":282.5593,"EPHEMERIS_TYPE":0,"CLASSIFICATION_TYPE":"U","NORAD_CAT_ID":46351,"ELEMENT_SET_NO":999,"REV_AT_EPOCH":28981,"BSTAR":-0.00011427,"MEAN_MOTION_DOT":-1.983e-5,"MEAN_MOTION_DDOT":0},{"OBJECT_NAME":"STARLINK-1653","OBJECT_ID":"2020-062AD","EPOCH":"2025-12-01T22:00:00.999072","MEAN_MOTION":15.33724059,"ECCENTRICITY":0.0005318,"INCLINATION":53.0521,"RA_OF_ASC_NODE":68.1826,"ARG_OF_PERICENTER":335.7612,"MEAN_ANOMALY":21.6309,"EPHEMERIS_TYPE":0,"CLASSIFICATION_TYPE":"U","NORAD_CAT_ID":46352,"ELEMENT_SET_NO":999,"REV_AT_EPOCH":579,"BSTAR":0.00078063,"MEAN_MOTION_DOT":0.0002554,"MEAN_MOTION_DDOT":0},{"OBJECT_NAME":"STARLINK-1656","OBJECT_ID":"2020-062AE","EPOCH":"2025-12-01T14:46:32.898720","MEAN_MOTION":15.06419979,"ECCENTRICITY":0.0001379,"INCLINATION":53.0526,"RA_OF_ASC_NODE":96.8894,"ARG_OF_PERICENTER":74.6213,"MEAN_ANOMALY":285.4928,"EPHEMERIS_TYPE":0,"CLASSIFICATION_TYPE":"U","NORAD_CAT_ID":46353,"ELEMENT_SET_NO":999,"REV_AT_EPOCH":28952,"BSTAR":0.00063284,"MEAN_MOTION_DOT":9.162e-5,"MEAN_MOTION_DDOT":0}]
